AAUSAT2
1 32788U 08021F   13318.81395652  .00004880  00000-0  55362-3 0  7637
2 32788 097.7357 014.1314 0014569 162.7562 197.4152 14.86709554300377
DO-64
1 32789U 08021G   13318.42402900  .00007758  00000-0  81072-3 0  7993
2 32789 097.7526 018.4790 0013863 155.8432 268.2267 14.89877682300483
CO-66
1 32791U 08021J   13317.84406444  .00003328  00000-0  39373-3 0  7556
2 32791 097.7352 011.5841 0015414 168.4804 244.1645 14.85185026300080
RS-30
1 32953U 08025A   13318.81345361  .00000010  00000-0  00000 0 0  3819
2 32953 082.5039 334.5268 0017449 264.6547 095.2543 12.43039290248624
METEOR-M
1 35865U 09049A   13318.67410498  .00000002  00000-0  20404-4 0  9855
2 35865 098.5835 007.2517 0002866 017.5919 342.5354 14.21897467215859
RS-38
1 35869U 09049E   13318.89197422  .00000074  00000-0  52620-4 0  9430
2 35869 098.5780 007.3341 0004852 008.3385 351.7859 14.22155824215914
JUGNU
1 37839U 11058B   13318.52019366  .00000524  00000-0  13820-3 0  5010
2 37839 019.9611 115.8561 0018912 139.2404 277.5894 14.12203526108175
SRMSAT
1 37841U 11058D   13318.20462963  .00000440  00000-0  97895-4 0  5004
2 37841 019.9713 132.7968 0011856 083.1383 260.9364 14.10264956107970
RAX-2
1 37853U 11061D   13318.31195609  .00012491  00000-0  90969-3 0  6445
2 37853 101.6996 241.5551 0229707 316.7022 198.9458 14.85264234110714
AUBIESAT
1 37854U 11061E   13318.65443439  .00015427  00000-0  10943-2 0  6300
2 37854 101.7038 243.2602 0228878 313.8478 164.3392 14.86191023110798
HRBE
1 37855U 11061F   13318.29856815  .00013643  00000-0  97672-3 0  6388
2 37855 101.7038 242.3748 0230209 315.6117 196.1329 14.85735245110726
RS-39
1 38051U 11062C   13318.74095971  .00038343  00000-0  10181-2 0  9720
2 38051 051.6342 201.5727 0011517 097.9055 007.8050 15.37839476100907
E-STAR
1 38079U 12006C   13318.60332036  .00066280  39611-5  11423-2 0  6004
2 38079 069.4681 177.4882 0543948 295.4935 088.1437 14.64687357 91619
GOLIAT
1 38085U 12006J   13318.72341275  .00062324  38514-5  10837-2 0  5372
2 38085 069.4770 180.7576 0556944 297.1176 057.4185 14.61781848 91535
HORYU-2
1 38340U 12025D   13318.35011879  .00002799  00000-0  46011-3 0  6694
2 38340 098.2338 267.4719 0013388 133.0276 227.2009 14.71374388 80190
RS-40
1 38736U 12041D   13318.36267432  .00000010  00000-0  00000 0 0  4247
2 38736 082.4798 061.4873 0021020 001.6803 358.4356 12.42873158 58906
PROITERES
1 38756U 12047B   13318.78338690  .00001306  00000-0  20456-3 0  3010
2 38756 098.2436 038.5185 0012665 353.2919 006.8107 14.74434860 63580
