Satellite: AAUSAT2
Catalog number: 32788
Epoch time:      13318.81395652
Element set:     763
Inclination:      097.7357 deg
RA of node:       014.1314 deg
Eccentricity:    0.0014569
Arg of perigee:   162.7562 deg
Mean anomaly:     197.4152 deg
Mean motion:   14.86709554 rev/day
Decay rate:      4.880e-05 rev/day^2
Epoch rev:           30037
Checksum:              326

Satellite: DO-64
Catalog number: 32789
Epoch time:      13318.42402900
Element set:     799
Inclination:      097.7526 deg
RA of node:       018.4790 deg
Eccentricity:    0.0013863
Arg of perigee:   155.8432 deg
Mean anomaly:     268.2267 deg
Mean motion:   14.89877682 rev/day
Decay rate:      7.758e-05 rev/day^2
Epoch rev:           30048
Checksum:              359

Satellite: CO-66
Catalog number: 32791
Epoch time:      13317.84406444
Element set:     755
Inclination:      097.7352 deg
RA of node:       011.5841 deg
Eccentricity:    0.0015414
Arg of perigee:   168.4804 deg
Mean anomaly:     244.1645 deg
Mean motion:   14.85185026 rev/day
Decay rate:      3.328e-05 rev/day^2
Epoch rev:           30008
Checksum:              301

Satellite: RS-30
Catalog number: 32953
Epoch time:      13318.81345361
Element set:     381
Inclination:      082.5039 deg
RA of node:       334.5268 deg
Eccentricity:    0.0017449
Arg of perigee:   264.6547 deg
Mean anomaly:     095.2543 deg
Mean motion:   12.43039290 rev/day
Decay rate:        1.0e-07 rev/day^2
Epoch rev:           24862
Checksum:              296

Satellite: METEOR-M
Catalog number: 35865
Epoch time:      13318.67410498
Element set:     985
Inclination:      098.5835 deg
RA of node:       007.2517 deg
Eccentricity:    0.0002866
Arg of perigee:   017.5919 deg
Mean anomaly:     342.5354 deg
Mean motion:   14.21897467 rev/day
Decay rate:        2.0e-08 rev/day^2
Epoch rev:           21585
Checksum:              328

Satellite: RS-38
Catalog number: 35869
Epoch time:      13318.89197422
Element set:     943
Inclination:      098.5780 deg
RA of node:       007.3341 deg
Eccentricity:    0.0004852
Arg of perigee:   008.3385 deg
Mean anomaly:     351.7859 deg
Mean motion:   14.22155824 rev/day
Decay rate:        7.4e-07 rev/day^2
Epoch rev:           21591
Checksum:              329

Satellite: JUGNU
Catalog number: 37839
Epoch time:      13318.52019366
Element set:     501
Inclination:      019.9611 deg
RA of node:       115.8561 deg
Eccentricity:    0.0018912
Arg of perigee:   139.2404 deg
Mean anomaly:     277.5894 deg
Mean motion:   14.12203526 rev/day
Decay rate:       5.24e-06 rev/day^2
Epoch rev:           10817
Checksum:              287

Satellite: SRMSAT
Catalog number: 37841
Epoch time:      13318.20462963
Element set:     500
Inclination:      019.9713 deg
RA of node:       132.7968 deg
Eccentricity:    0.0011856
Arg of perigee:   083.1383 deg
Mean anomaly:     260.9364 deg
Mean motion:   14.10264956 rev/day
Decay rate:       4.40e-06 rev/day^2
Epoch rev:           10797
Checksum:              298

Satellite: RAX-2
Catalog number: 37853
Epoch time:      13318.31195609
Element set:     644
Inclination:      101.6996 deg
RA of node:       241.5551 deg
Eccentricity:    0.0229707
Arg of perigee:   316.7022 deg
Mean anomaly:     198.9458 deg
Mean motion:   14.85264234 rev/day
Decay rate:     1.2491e-04 rev/day^2
Epoch rev:           11071
Checksum:              313

Satellite: AUBIESAT
Catalog number: 37854
Epoch time:      13318.65443439
Element set:     630
Inclination:      101.7038 deg
RA of node:       243.2602 deg
Eccentricity:    0.0228878
Arg of perigee:   313.8478 deg
Mean anomaly:     164.3392 deg
Mean motion:   14.86191023 rev/day
Decay rate:     1.5427e-04 rev/day^2
Epoch rev:           11079
Checksum:              305

Satellite: HRBE
Catalog number: 37855
Epoch time:      13318.29856815
Element set:     638
Inclination:      101.7038 deg
RA of node:       242.3748 deg
Eccentricity:    0.0230209
Arg of perigee:   315.6117 deg
Mean anomaly:     196.1329 deg
Mean motion:   14.85735245 rev/day
Decay rate:     1.3643e-04 rev/day^2
Epoch rev:           11072
Checksum:              305

Satellite: RS-39
Catalog number: 38051
Epoch time:      13318.74095971
Element set:     972
Inclination:      051.6342 deg
RA of node:       201.5727 deg
Eccentricity:    0.0011517
Arg of perigee:   097.9055 deg
Mean anomaly:     007.8050 deg
Mean motion:   15.37839476 rev/day
Decay rate:     3.8343e-04 rev/day^2
Epoch rev:           10090
Checksum:              312

Satellite: E-STAR
Catalog number: 38079
Epoch time:      13318.60332036
Element set:     600
Inclination:      069.4681 deg
RA of node:       177.4882 deg
Eccentricity:    0.0543948
Arg of perigee:   295.4935 deg
Mean anomaly:     088.1437 deg
Mean motion:   14.64687357 rev/day
Decay rate:     6.6280e-04 rev/day^2
Epoch rev:            9161
Checksum:              342

Satellite: GOLIAT
Catalog number: 38085
Epoch time:      13318.72341275
Element set:     537
Inclination:      069.4770 deg
RA of node:       180.7576 deg
Eccentricity:    0.0556944
Arg of perigee:   297.1176 deg
Mean anomaly:     057.4185 deg
Mean motion:   14.61781848 rev/day
Decay rate:     6.2324e-04 rev/day^2
Epoch rev:            9153
Checksum:              339

Satellite: HORYU-2
Catalog number: 38340
Epoch time:      13318.35011879
Element set:     669
Inclination:      098.2338 deg
RA of node:       267.4719 deg
Eccentricity:    0.0013388
Arg of perigee:   133.0276 deg
Mean anomaly:     227.2009 deg
Mean motion:   14.71374388 rev/day
Decay rate:      2.799e-05 rev/day^2
Epoch rev:            8019
Checksum:              327

Satellite: RS-40
Catalog number: 38736
Epoch time:      13318.36267432
Element set:     424
Inclination:      082.4798 deg
RA of node:       061.4873 deg
Eccentricity:    0.0021020
Arg of perigee:   001.6803 deg
Mean anomaly:     358.4356 deg
Mean motion:   12.42873158 rev/day
Decay rate:        1.0e-07 rev/day^2
Epoch rev:            5890
Checksum:              289

Satellite: PROITERES
Catalog number: 38756
Epoch time:      13318.78338690
Element set:     301
Inclination:      098.2436 deg
RA of node:       038.5185 deg
Eccentricity:    0.0012665
Arg of perigee:   353.2919 deg
Mean anomaly:     006.8107 deg
Mean motion:   14.74434860 rev/day
Decay rate:      1.306e-05 rev/day^2
Epoch rev:            6358
Checksum:              310

